NORAD_CAT_ID,OBJECT_NAME,OBJECT_TYPE,EPOCH,MEAN_MOTION,ECCENTRICITY,INCLINATION,RA_OF_ASC_NODE,ARG_OF_PERICENTER,MEAN_ANOMALY,BSTAR,MEAN_MOTION_DOT,MEAN_MOTION_DDOT,TLE_LINE0,TLE_LINE1,TLE_LINE2,SEMIMAJOR_AXIS,PERIOD,APOGEE,PERIGEE,DECAYED
52090.0,STARLINK-3712,PAYLOAD,2022-07-11 22:00:00,15.08852901,0.0001702,53.216,330.1257,45.5286,100.943,-0.0018253,-0.00029231,0.0,0 STARLINK-3712,1 52090U 22029C   22192.91667824 -.00029231  00000-0 -18253-2 0  9990,2 52090  53.2160 330.1257 0001702  45.5286 100.9430 15.08852901  1306,6917.840999999999,95.437,540.883,538.529,0.0
52090.0,STARLINK-3712,PAYLOAD,2022-07-12 14:00:01,15.08856692,0.0001611,53.2162,327.1326,48.2726,121.3982,-0.00073252,-0.00011933,0.0,0 STARLINK-3712,1 52090U 22029C   22193.58334491 -.00011933  00000-0 -73252-3 0  9996,2 52090  53.2162 327.1326 0001611  48.2726 121.3982 15.08856692 18947,6917.829000000002,95.436,540.809,538.58,0.0
52090.0,STARLINK-3712,PAYLOAD,2022-07-12 22:00:00,15.08878642,0.0001713,53.2158,325.6364,44.5911,136.6917,-0.0018035,-0.00028907,0.0,0 STARLINK-3712,1 52090U 22029C   22193.91667824 -.00028907  00000-0 -18035-2 0  9998,2 52090  53.2158 325.6364 0001713  44.5911 136.6917 15.08878642  1303,6917.762,95.435,540.812,538.442,0.0
52090.0,STARLINK-3712,PAYLOAD,2022-07-13 14:00:01,15.08848102,0.0001629999999999,53.2161,322.6434,47.0028,157.5074,-0.0036445,-0.00057838,0.0,0 STARLINK-3712,1 52090U 22029C   22194.58334491 -.00057838  00000-0 -36445-2 0  9993,2 52090  53.2161 322.6434 0001630  47.0028 157.5074 15.08848102  1301,6917.856,95.437,540.8480000000002,538.5930000000002,0.0
52090.0,STARLINK-3712,PAYLOAD,2022-07-13 22:00:00,15.0882964,0.0001675999999999,53.216,321.1472,42.2825,173.8018,-0.0027954,-0.0004449,0.0,0 STARLINK-3712,1 52090U 22029C   22194.91667824 -.00044490  00000-0 -27954-2 0  9994,2 52090  53.2160 321.1472 0001676  42.2825 173.8018 15.08829640 19144,6917.9119999999975,95.438,540.936,538.618,0.0
52090.0,STARLINK-3712,PAYLOAD,2022-07-14 14:00:01,15.08802986,0.0001751999999999,53.2162,318.1546,47.0094,192.175,-0.00052019,-8.549e-05,0.0,0 STARLINK-3712,1 52090U 22029C   22195.58334491 -.00008549  00000-0 -52019-3 0  9995,2 52090  53.2162 318.1546 0001752  47.0094 192.1750 15.08802986 19242,6917.994000000002,95.44,541.071,538.646,0.0
52090.0,STARLINK-3712,PAYLOAD,2022-07-14 22:00:00,15.08818575,0.0001769,53.2162,316.6584,43.6769,207.0517,-0.00049293,-8.120000000000001e-05,0.0,0 STARLINK-3712,1 52090U 22029C   22195.91667824 -.00008120  00000-0 -49293-3 0  9996,2 52090  53.2162 316.6584 0001769  43.6769 207.0517 15.08818575  1302,6917.946,95.439,541.035,538.587,0.0
52090.0,STARLINK-3712,PAYLOAD,2022-07-15 06:00:00,15.0879802,0.0001655,53.2164,315.1605,49.6464,212.6524,0.0030846,0.00049089,0.0,0 STARLINK-3712,1 52090U 22029C   22196.25001157  .00049089  00000-0  30846-2 0  9995,2 52090  53.2164 315.1605 0001655  49.6464 212.6524 15.08798020 19349,6918.009,95.44,541.019,538.729,0.0
52090.0,STARLINK-3712,PAYLOAD,2022-07-15 14:00:01,15.08834655,0.0001828,53.2164,313.6659,45.9087,227.9628,-0.00016951,-2.985e-05,0.0,0 STARLINK-3712,1 52090U 22029C   22196.58334491 -.00002985  00000-0 -16951-3 0  9999,2 52090  53.2164 313.6659 0001828  45.9087 227.9628 15.08834655  1309,6917.897,95.438,541.026,538.497,0.0
52090.0,STARLINK-3712,PAYLOAD,2022-07-15 22:00:00,15.08856498,0.0001824,53.2164,312.1695,43.4604,241.9947,-0.00084674,-0.00013745,0.0,0 STARLINK-3712,1 52090U 22029C   22196.91667824 -.00013745  00000-0 -84674-3 0  9998,2 52090  53.2164 312.1695 0001824  43.4604 241.9947 15.08856498 19440,6917.83,95.437,540.957,538.433,0.0
52090.0,STARLINK-3712,PAYLOAD,2022-07-16 14:00:01,15.08878787,0.0001828,53.2166,309.177,44.3234,264.3523,-0.0026067,-0.00041579,0.0,0 STARLINK-3712,1 52090U 22029C   22197.58334491 -.00041579  00000-0 -26067-2 0  9990,2 52090  53.2166 309.1770 0001828  44.3234 264.3523 15.08878787 19540,6917.762,95.435,540.891,538.362,0.0
52090.0,STARLINK-3712,PAYLOAD,2022-07-16 22:00:00,15.08872567,0.000178,53.2164,307.6802,41.3565,278.9536,-0.00103,-0.00016658,0.0,0 STARLINK-3712,1 52090U 22029C   22197.91667824 -.00016658  00000-0 -10300-2 0  9999,2 52090  53.2164 307.6802 0001780  41.3565 278.9536 15.08872567 19598,6917.781,95.435,540.877,538.414,0.0
52090.0,STARLINK-3712,PAYLOAD,2022-07-17 14:00:01,15.08861808,0.0001856,53.2164,304.6879,44.3513,299.1864,-0.0026885,-0.00042848,0.0,0 STARLINK-3712,1 52090U 22029C   22198.58334491 -.00042848  00000-0 -26885-2 0  9999,2 52090  53.2164 304.6879 0001856  44.3513 299.1864 15.08861808  1304,6917.814,95.436,540.9630000000002,538.395,0.0
52090.0,STARLINK-3712,PAYLOAD,2022-07-17 22:00:00,15.08859644,0.0001821,53.2163,303.1891,41.7003,313.4381,-0.0055438,-0.00087496,0.0,0 STARLINK-3712,1 52090U 22029C   22198.91667824 -.00087496  00000-0 -55438-2 0  9999,2 52090  53.2163 303.1891 0001821  41.7003 313.4381 15.08859644  1307,6917.82,95.436,540.945,538.4259999999998,0.0
52090.0,STARLINK-3712,PAYLOAD,2022-07-18 06:00:00,15.08791703,0.0001683,53.2162,301.6935,50.6907,316.0144,0.0028546999999999,0.00045377,0.0,0 STARLINK-3712,1 52090U 22029C   22199.25001157  .00045377  00000-0  28547-2 0  9999,2 52090  53.2162 301.6935 0001683  50.6907 316.0144 15.08791703 19807,6918.028,95.441,541.057,538.729,0.0
52090.0,STARLINK-3712,PAYLOAD,2022-07-18 14:00:01,15.08812878,0.0001868,53.216,300.1989,45.9353,332.3223,-8.149700000000001e-06,-4.18e-06,0.0,0 STARLINK-3712,1 52090U 22029C   22199.58334491 -.00000418  00000-0 -81497-5 0  9990,2 52090  53.2160 300.1989 0001868  45.9353 332.3223 15.08812878  1307,6917.9630000000025,95.439,541.121,538.536,0.0
52090.0,STARLINK-3712,PAYLOAD,2022-07-18 22:00:00,15.08836316,0.0001808,53.2155,298.7017,45.2605,344.5554,-0.0016504999999999,-0.00026457,0.0,0 STARLINK-3712,1 52090U 22029C   22199.91667824 -.00026457  00000-0 -16505-2 0  9992,2 52090  53.2155 298.7017 0001808  45.2605 344.5554 15.08836316 19902,6917.892,95.438,541.007,538.506,0.0
52090.0,STARLINK-3712,PAYLOAD,2022-07-19 14:00:01,15.08842837,0.0001869,53.2154,295.7098,46.4248,6.5743,0.0004676,7.162e-05,0.0,0 STARLINK-3712,1 52090U 22029C   22200.58334491  .00007162  00000-0  46760-3 0  9996,2 52090  53.2154 295.7098 0001869  46.4248   6.5743 15.08842837 20003,6917.871999999999,95.437,541.03,538.444,0.0
52090.0,STARLINK-3712,PAYLOAD,2022-07-19 22:00:00,15.08850809,0.0001826,53.216,294.2105,44.295,20.3033,0.0014678,0.00023156,0.0,0 STARLINK-3712,1 52090U 22029C   22200.91667824  .00023156  00000-0  14678-2 0  9995,2 52090  53.2160 294.2105 0001826  44.2950  20.3033 15.08850809  1308,6917.847,95.437,540.976,538.4490000000002,0.0
52090.0,STARLINK-3712,PAYLOAD,2022-07-20 14:00:01,15.08840169,0.0001743,53.2149,291.2204,43.0667,44.6887,0.0011550999999999,0.00018143,0.0,0 STARLINK-3712,1 52090U 22029C   22201.58334491  .00018143  00000-0  11551-2 0  9997,2 52090  53.2149 291.2204 0001743  43.0667  44.6887 15.08840169  1306,6917.88,95.438,540.951,538.539,0.0
52090.0,STARLINK-3712,PAYLOAD,2022-07-20 22:00:01,15.08869839,0.0001704,53.2147,289.7228,44.3469,55.0642,-0.0037965,-0.00060254,0.0,0 STARLINK-3712,1 52090U 22029C   22201.91668981 -.00060254  00000-0 -37965-2 0  9997,2 52090  53.2147 289.7228 0001704  44.3469  55.0642 15.08869839  1303,6917.7890000000025,95.436,540.8330000000002,538.475,0.0
52090.0,STARLINK-3712,PAYLOAD,2022-07-21 06:00:00,15.08831695,0.0001678,53.2149,288.2256,50.8825,60.0641,0.0015023,0.00023697,0.0,0 STARLINK-3712,1 52090U 22029C   22202.25001157  .00023697  00000-0  15023-2 0  9990,2 52090  53.2149 288.2256 0001678  50.8825  60.0641 15.08831695 20257,6917.906,95.438,540.932,538.61,0.0
52090.0,STARLINK-3712,PAYLOAD,2022-07-21 14:00:01,15.08841129,0.000183,53.2149,286.7309,44.0597,78.5414,-0.0015277,-0.0002452,0.0,0 STARLINK-3712,1 52090U 22029C   22202.58335648 -.00024520  00000-0 -15277-2 0  9990,2 52090  53.2149 286.7309 0001830  44.0597  78.5414 15.08841129  1300,6917.877,95.437,541.008,538.476,0.0
52090.0,STARLINK-3712,PAYLOAD,2022-07-21 22:00:00,15.08833654,0.0001695,53.2149,285.2333,42.6119,91.5138,-0.0013469,-0.00021656,0.0,0 STARLINK-3712,1 52090U 22029C   22202.91667824 -.00021656  00000-0 -13469-2 0  9999,2 52090  53.2149 285.2333 0001695  42.6119  91.5138 15.08833654 20352,6917.9,95.438,540.937,538.592,0.0
52090.0,STARLINK-3712,PAYLOAD,2022-07-22 06:00:00,15.08833748,0.0001672,53.2152,283.7362,47.7005,98.0031,0.0010545,0.00016531,0.0,0 STARLINK-3712,1 52090U 22029C   22203.25001157  .00016531  00000-0  10545-2 0  9994,2 52090  53.2152 283.7362 0001672  47.7005  98.0031 15.08833748  1308,6917.899,95.438,540.9209999999998,538.6080000000002,0.0
52090.0,STARLINK-3712,PAYLOAD,2022-07-22 12:00:00,15.08843387,0.000185,53.215,282.6154,42.8456,21.5532,-0.00042281,-7.012e-05,0.0,0 STARLINK-3712,1 52090U 22029C   22203.50001157 -.00007012  00000-0 -42281-3 0  9991,2 52090  53.2150 282.6154 0001850  42.8456  21.5532 15.08843387 20440,6917.87,95.437,541.015,538.455,0.0
52090.0,STARLINK-3712,PAYLOAD,2022-07-22 22:00:00,15.08863947,0.0001776999999999,53.2153,280.7439,42.5362,126.3627,-0.00099838,-0.00016153,0.0,0 STARLINK-3712,1 52090U 22029C   22203.91667824 -.00016153  00000-0 -99838-3 0  9991,2 52090  53.2153 280.7439 0001777  42.5362 126.3627 15.08863947  1306,6917.807,95.436,540.901,538.443,0.0
52090.0,STARLINK-3712,PAYLOAD,2022-07-23 06:00:00,15.08880808,0.0001803,53.2157,279.247,48.3404,132.1684,-0.0022721,-0.00036308,0.0,0 STARLINK-3712,1 52090U 22029C   22204.25001157 -.00036308  00000-0 -22721-2 0  9990,2 52090  53.2157 279.2470 0001803  48.3404 132.1684 15.08880808 20550,6917.755999999999,95.435,540.868,538.373,0.0
52090.0,STARLINK-3712,PAYLOAD,2022-07-23 14:00:01,15.08816184,0.0002044999999999,53.2157,277.7522,44.1028,148.0938,0.002093,0.00033158,0.0,0 STARLINK-3712,1 52090U 22029C   22204.58335648  .00033158  00000-0  20930-2 0  9999,2 52090  53.2157 277.7522 0002045  44.1028 148.0938 15.08816184  1302,6917.953,95.439,541.2330000000002,538.403,0.0
